PHISAT 2                
1 60470U 24149C   24261.88095975  .00018330  00000+0  90640-3 0  9999
2 60470  97.4415 336.9051 0001194   8.3508 351.7746 15.17879623  4865
LEMUR-2-TOMATOKECHUP    
1 60471U 24149D   24261.48266754  .00036203  00000+0  17740-2 0  9999
2 60471  97.4436 336.5281 0001914   1.0198 359.1040 15.18048517  4809
CONNECTA IOT-1          
1 60472U 24149E   24261.48396107  .00020200  00000+0  10008-2 0  9996
2 60472  97.4413 336.5174 0002272  21.2466 338.8862 15.17788545  4803
2024-149F               
1 60473U 24149F   24261.48050529  .00040605  00000+0  19782-2 0  9991
2 60473  97.4428 336.5278 0002109  27.0358 333.0986 15.18221881  4808
2024-149G               
1 60474U 24149G   24261.74395293  .00039403  00000+0  19192-2 0  9990
2 60474  97.4428 336.7871 0002095  28.4939 331.6409 15.18237630  4841
CONNECTA IOT-3          
1 60475U 24149H   24261.48275938  .00021275  00000+0  10519-2 0  9997
2 60475  97.4365 336.4990 0003772   3.3546 356.7713 15.17846257  4802
QUBE                    
1 60476U 24149J   24261.47689981  .00045482  00000+0  21962-2 0  9994
2 60476  97.4433 336.5347 0002836   6.6999 353.4273 15.18501586  4803
SATORO-T2               
1 60477U 24149K   24261.66806525  .00068509  00000+0  32405-2 0  9990
2 60477  97.4390 336.7217 0001869   4.7498 355.3754 15.19094221  4834
WREN-1                  
1 60478U 24149L   24261.73837319  .00055366  00000+0  26551-2 0  9996
2 60478  97.4405 336.7873 0006806  11.3202 348.8184 15.18669870  4845
TOMORROW-S1             
1 60479U 24149M   24261.47894664  .00034869  00000+0  17028-2 0  9998
2 60479  97.4381 336.5114 0002969  19.0155 341.1189 15.18173824  4809
FLOCK 4BE-18            
1 60480U 24149N   24261.74063178  .00036907  00000+0  17917-2 0  9990
2 60480  97.4395 336.7781 0005637   5.2694 354.8599 15.18358050  4844
FLOCK 4BE-7             
1 60481U 24149P   24261.73970787  .00036121  00000+0  17519-2 0  9999
2 60481  97.4425 336.7939 0004406   7.2792 352.8506 15.18400211  4841
FLOCK 4BE-4             
1 60482U 24149Q   24261.73857557  .00222969  00000+0  10368-1 0  9990
2 60482  97.4417 336.7937 0003991   8.6570 351.4733 15.18925112  4847
FLOCK 4BE-16            
1 60483U 24149R   24261.73940013  .00045507  00000+0  22005-2 0  9994
2 60483  97.4410 336.7866 0003997  10.4899 349.6418 15.18448657  4846
FLOCK 4BE-26            
1 60484U 24149S   24261.14417804  .00016720  00000+0  81257-3 0  9997
2 60484  97.4380 336.1913 0005000  10.3557 349.7779 15.18495006  4758
TOMORROW-S2             
1 60485U 24149T   24261.80618424  .00018281  00000+0  89315-3 0  9999
2 60485  97.4441 336.8634 0003200  21.3604 338.7763 15.18296146  4855
FLOCK 4BE-36            
1 60486U 24149U   24261.73776089  .00046441  00000+0  22396-2 0  9998
2 60486  97.4387 336.7771 0006309  15.1129 345.0293 15.18527688  4848
FLOCK 4BE-25            
1 60487U 24149V   24261.80153861  .00018833  00000+0  91305-3 0  9995
2 60487  97.4438 336.8695 0003712  15.3240 344.8106 15.18558231  4852
FLOCK 4BE-31            
1 60488U 24149W   24261.73557679  .00047180  00000+0  22660-2 0  9997
2 60488  97.4436 336.8049 0004376  17.2222 342.9160 15.18673753  4847
FLOCK 4BE-20            
1 60489U 24149X   24261.47056028  .00032163  00000+0  15505-2 0  9996
2 60489  97.4369 336.5149 0005208  14.5211 345.6172 15.18635651  4808
FLOCK 4BE-23            
1 60490U 24149Y   24261.47301459  .00034147  00000+0  16524-2 0  9995
2 60490  97.4432 336.5428 0004885  15.3722 344.7659 15.18490546  4809
FLOCK 4BE-15            
1 60491U 24149Z   24261.47221954  .00038474  00000+0  18556-2 0  9991
2 60491  97.4365 336.5116 0005471  18.0570 342.0857 15.18576159  4808
FLOCK 4BE-17            
1 60492U 24149AA  24261.47211349  .00032814  00000+0  15868-2 0  9994
2 60492  97.4443 336.5481 0004235  19.5905 340.5491 15.18527008  4802
2024-149AB              
1 60493U 24149AB  24261.73458520  .00037302  00000+0  17954-2 0  9993
2 60493  97.4420 336.8009 0005105  20.4176 339.7262 15.18656657  4848
FLOCK 4BE-22            
1 60494U 24149AC  24261.73443856  .00035787  00000+0  17236-2 0  9998
2 60494  97.4384 336.7777 0006381  23.1785 336.9736 15.18637427  4841
FLOCK 4BE-34            
1 60495U 24149AD  24261.79916889  .00018552  00000+0  89744-3 0  9991
2 60495  97.4428 336.8715 0004581  20.5827 339.5591 15.18635100  4857
TYCHE                   
1 60496U 24149AE  24261.86815913  .00012154  00000+0  59478-3 0  9999
2 60496  97.4412 336.9237 0005511  29.3763 330.7780 15.18324008  4867
FLOCK 4BE-32            
1 60497U 24149AF  24261.46610835  .00036480  00000+0  17445-2 0  9997
2 60497  97.4367 336.5191 0005766  23.4579 336.6917 15.18883633  4809
2024-149AG              
1 60498U 24149AG  24261.73249706  .00037769  00000+0  18123-2 0  9998
2 60498  97.4389 336.7845 0006172  28.1212 332.0355 15.18754976  4847
FLOCK 4BE-30            
1 60499U 24149AH  24261.79698829  .00019664  00000+0  94642-3 0  9994
2 60499  97.4441 336.8792 0004519  27.1974 332.9496 15.18800012  4237
2024-149AJ              
1 60500U 24149AJ  24261.73177081  .00036809  00000+0  17655-2 0  9991
2 60500  97.4416 336.8035 0004990  26.2155 333.9331 15.18781536  4841
FLOCK 4BE-11            
1 60501U 24149AK  24261.79621199  .00020008  00000+0  96152-3 0  9996
2 60501  97.4368 336.8432 0006153  28.4431 331.7139 15.18840963  4856
FLOCK 4BE-33            
1 60502U 24149AL  24261.79456219  .00017054  00000+0  82032-3 0  9995
2 60502  97.4383 336.8502 0006018  34.1466 326.0155 15.18843218  4855
FLOCK 4BE-10            
1 60503U 24149AM  24261.72911740  .00058642  00000+0  27946-2 0  9994
2 60503  97.4432 336.8152 0004272  35.8363 324.3157 15.18881798  4843
2024-149AN              
1 60504U 24149AN  24261.46616312  .00028452  00000+0  13689-2 0  9998
2 60504  97.4418 336.5462 0005035  40.5801 319.5808 15.18731665  4809
FLOCK 4BE-24            
1 60505U 24149AP  24261.79033993  .00023301  00000+0  11088-2 0  9992
2 60505  97.4366 336.8504 0006142  33.7120 326.4504 15.19151772  4851
LUR-1                   
1 60506U 24149AQ  24261.79458608  .00011374  00000+0  55065-3 0  9998
2 60506  97.4402 336.8613 0005744  44.1380 316.0312 15.18715856  4855
TANAGER-1               
1 60507U 24149AR  24261.79226112  .00020495  00000+0  97928-3 0  9990
2 60507  97.4401 336.8643 0005395  40.5702 319.5934 15.19039728  4854
EAGLEEYE                
1 60508U 24149AS  24261.78714123  .00029357  00000+0  13810-2 0  9997
2 60508  97.4384 336.8635 0005519  39.0554 321.1078 15.19503561  4851
FLOCK 4BE-29            
1 60509U 24149AT  24261.78895481  .00022593  00000+0  10723-2 0  9990
2 60509  97.4439 336.8907 0004868  44.1240 316.0382 15.19254392  4856
2024-149AU              
1 60510U 24149AU  24261.46032345  .00037102  00000+0  17597-2 0  9997
2 60510  97.4381 336.5321 0006102  45.7412 314.4323 15.19163746  4806
FLOCK 4BE-2             
1 60511U 24149AV  24261.78509521  .00020911  00000+0  98761-3 0  9991
2 60511  97.4444 336.8961 0004821  47.1359 313.0280 15.19440834  4850
FLOCK 4BE-13            
1 60512U 24149AW  24261.78822929  .00019182  00000+0  91247-3 0  9992
2 60512  97.4357 336.8522 0006647  36.4225 323.7460 15.19200753  4850
FLOCK 4BE-27            
1 60513U 24149AX  24261.45770569  .00028235  00000+0  13422-2 0  9996
2 60513  97.4444 336.5661 0006182  52.8484 307.3314 15.19146161  4805
FLOCK 4BE-9             
1 60514U 24149AY  24261.78514567  .00019398  00000+0  91908-3 0  9993
2 60514  97.4423 336.8880 0004940  54.1859 305.9834 15.19346200  4852
FLOCK 4BE-8             
1 60515U 24149AZ  24261.71952910  .00034373  00000+0  16234-2 0  9993
2 60515  97.4375 336.7962 0006625  45.7111 314.4666 15.19325698  4843
FLOCK 4BE-6             
1 60516U 24149BA  24261.78423717  .00031885  00000+0  15050-2 0  9999
2 60516  97.4429 336.8905 0005486  54.3329 305.8416 15.19368576  4853
FLOCK 4BE-14            
1 60517U 24149BB  24261.77994552  .00039966  00000+0  18666-2 0  9993
2 60517  97.4378 336.8720 0006927  44.5035 315.6755 15.19674588  4856
FLOCK 4BE-1             
1 60518U 24149BC  24261.78113327  .00037723  00000+0  17660-2 0  9990
2 60518  97.4422 336.8909 0006209  50.8175 309.3610 15.19611253  4854
FLOCK 4BE-28            
1 60519U 24149BD  24261.78221908  .00047183  00000+0  22063-2 0  9990
2 60519  97.4386 336.8739 0007523  44.6617 315.5222 15.19586778  4858
IPERDRONE.0             
1 60520U 24149BE  24261.77704604  .00060448  00000+0  27849-2 0  9996
2 60520  97.4393 336.8837 0007173  42.1138 318.0647 15.20029450  4859
2024-149BF              
1 60521U 24149BF  24261.77388308  .00067404  00000+0  30771-2 0  9993
2 60521  97.4411 336.8959 0006956  43.7349 316.4436 15.20309932  4859
CONNECTA IOT-2          
1 60522U 24149BG  24261.45101964  .00025387  00000+0  11980-2 0  9995
2 60522  97.4437 336.5713 0008274  51.3731 308.8243 15.19409044  4807
PTD-R (TYVAK-0127)      
1 60523U 24149BH  24261.77011903  .00073469  00000+0  33268-2 0  9991
2 60523  97.4368 336.8814 0007716  39.1005 321.0787 15.20554055  4854
CONNECTA IOT-4          
1 60524U 24149BJ  24261.45014744  .00023438  00000+0  11057-2 0  9996
2 60524  97.4398 336.5570 0008909  46.2286 313.9684 15.19431862  4808
2024-149BK              
1 60525U 24149BK  24261.11533528  .00019548  00000+0  90905-3 0  9993
2 60525  97.4357 336.2235 0009209  40.2164 319.9750 15.19963471  4752
DEIMOS                  
1 60526U 24149BL  24261.70698431  .00050419  00000+0  23248-2 0  9991
2 60526  97.4417 336.8332 0009128  42.9704 317.2243 15.20041284  4842
CUAVA 2                 
1 60527U 24149BM  24261.77276179  .00040051  00000+0  18516-2 0  9993
2 60527  97.4365 336.8777 0009516  36.2826 323.9052 15.20007074  4852
ERNST                   
1 60528U 24149BN  24261.84263075  .00014033  00000+0  66122-3 0  9991
2 60528  97.4426 336.9613 0009750  45.6683 314.5349 15.19576681  4865
